[{"OBJECT_NAME":"TIANMU-1 10","OBJECT_ID":"2023-101D","EPOCH":"2026-04-04T20:58:23.906784","MEAN_MOTION":15.29478183,"ECCENTRICITY":0.0006145,"INCLINATION":97.2693,"RA_OF_ASC_NODE":147.4429,"ARG_OF_PERICENTER":65.2381,"MEAN_ANOMALY":294.9499,"EPHEMERIS_TYPE":0,"CLASSIFICATION_TYPE":"U","NORAD_CAT_ID":57402,"ELEMENT_SET_NO":999,"REV_AT_EPOCH":15043,"BSTAR":0.00033305,"MEAN_MOTION_DOT":9.451e-5,"MEAN_MOTION_DDOT":0},{"OBJECT_NAME":"FENGYUN 3F","OBJECT_ID":"2023-111A","EPOCH":"2026-04-04T19:56:30.352704","MEAN_MOTION":14.19926136,"ECCENTRICITY":8.08e-5,"INCLINATION":98.6877,"RA_OF_ASC_NODE":166.1927,"ARG_OF_PERICENTER":87.5405,"MEAN_ANOMALY":272.5864,"EPHEMERIS_TYPE":0,"CLASSIFICATION_TYPE":"U","NORAD_CAT_ID":57490,"ELEMENT_SET_NO":999,"REV_AT_EPOCH":13845,"BSTAR":8.8384e-5,"MEAN_MOTION_DOT":1.44e-6,"MEAN_MOTION_DDOT":0},{"OBJECT_NAME":"ARKTIKA-M 2","OBJECT_ID":"2023-198A","EPOCH":"2026-03-30T23:56:14.512416","MEAN_MOTION":2.00607099,"ECCENTRICITY":0.68829758,"INCLINATION":63.2169,"RA_OF_ASC_NODE":163.0455,"ARG_OF_PERICENTER":267.6817,"MEAN_ANOMALY":18.8399,"EPHEMERIS_TYPE":0,"CLASSIFICATION_TYPE":"U","NORAD_CAT_ID":58584,"ELEMENT_SET_NO":999,"REV_AT_EPOCH":1675,"BSTAR":0,"MEAN_MOTION_DOT":1.42e-6,"MEAN_MOTION_DDOT":0},{"OBJECT_NAME":"TIANMU-1 11","OBJECT_ID":"2023-205A","EPOCH":"2026-04-04T20:06:07.504704","MEAN_MOTION":15.2625157,"ECCENTRICITY":0.0007097,"INCLINATION":97.3509,"RA_OF_ASC_NODE":117.5662,"ARG_OF_PERICENTER":260.5988,"MEAN_ANOMALY":99.4448,"EPHEMERIS_TYPE":0,"CLASSIFICATION_TYPE":"U","NORAD_CAT_ID":58645,"ELEMENT_SET_NO":999,"REV_AT_EPOCH":12633,"BSTAR":0.00032967,"MEAN_MOTION_DOT":8.476e-5,"MEAN_MOTION_DDOT":0},{"OBJECT_NAME":"TIANMU-1 12","OBJECT_ID":"2023-205B","EPOCH":"2026-04-04T19:20:05.678592","MEAN_MOTION":15.26189479,"ECCENTRICITY":0.0005634,"INCLINATION":97.3497,"RA_OF_ASC_NODE":117.3066,"ARG_OF_PERICENTER":237.8041,"MEAN_ANOMALY":122.2651,"EPHEMERIS_TYPE":0,"CLASSIFICATION_TYPE":"U","NORAD_CAT_ID":58646,"ELEMENT_SET_NO":999,"REV_AT_EPOCH":12631,"BSTAR":0.0003722,"MEAN_MOTION_DOT":9.56e-5,"MEAN_MOTION_DDOT":0},{"OBJECT_NAME":"TIANMU-1 13","OBJECT_ID":"2023-205C","EPOCH":"2026-04-04T20:03:19.886112","MEAN_MOTION":15.26240775,"ECCENTRICITY":0.0006417,"INCLINATION":97.3525,"RA_OF_ASC_NODE":117.5868,"ARG_OF_PERICENTER":215.4486,"MEAN_ANOMALY":144.6327,"EPHEMERIS_TYPE":0,"CLASSIFICATION_TYPE":"U","NORAD_CAT_ID":58647,"ELEMENT_SET_NO":999,"REV_AT_EPOCH":12631,"BSTAR":0.00034747,"MEAN_MOTION_DOT":8.935e-5,"MEAN_MOTION_DDOT":0},{"OBJECT_NAME":"TIANMU-1 14","OBJECT_ID":"2023-205D","EPOCH":"2026-04-04T19:41:44.115072","MEAN_MOTION":15.2621415,"ECCENTRICITY":0.0006986,"INCLINATION":97.346,"RA_OF_ASC_NODE":116.8171,"ARG_OF_PERICENTER":221.9816,"MEAN_ANOMALY":138.0888,"EPHEMERIS_TYPE":0,"CLASSIFICATION_TYPE":"U","NORAD_CAT_ID":58648,"ELEMENT_SET_NO":999,"REV_AT_EPOCH":12631,"BSTAR":0.00035668,"MEAN_MOTION_DOT":9.167e-5,"MEAN_MOTION_DDOT":0},{"OBJECT_NAME":"TIANMU-1 19","OBJECT_ID":"2023-208A","EPOCH":"2026-04-04T21:19:38.860608","MEAN_MOTION":15.30424117,"ECCENTRICITY":0.0004661,"INCLINATION":97.4417,"RA_OF_ASC_NODE":210.9175,"ARG_OF_PERICENTER":200.3024,"MEAN_ANOMALY":159.8032,"EPHEMERIS_TYPE":0,"CLASSIFICATION_TYPE":"U","NORAD_CAT_ID":58660,"ELEMENT_SET_NO":999,"REV_AT_EPOCH":12611,"BSTAR":0.0004157,"MEAN_MOTION_DOT":0.00012164,"MEAN_MOTION_DDOT":0},{"OBJECT_NAME":"TIANMU-1 20","OBJECT_ID":"2023-208B","EPOCH":"2026-04-04T20:27:51.569280","MEAN_MOTION":15.31609652,"ECCENTRICITY":0.000652,"INCLINATION":97.4358,"RA_OF_ASC_NODE":211.4412,"ARG_OF_PERICENTER":214.98,"MEAN_ANOMALY":145.1014,"EPHEMERIS_TYPE":0,"CLASSIFICATION_TYPE":"U","NORAD_CAT_ID":58661,"ELEMENT_SET_NO":999,"REV_AT_EPOCH":12619,"BSTAR":0.00040836,"MEAN_MOTION_DOT":0.000124,"MEAN_MOTION_DDOT":0},{"OBJECT_NAME":"TIANMU-1 21","OBJECT_ID":"2023-208C","EPOCH":"2026-04-04T19:35:14.140032","MEAN_MOTION":15.33719838,"ECCENTRICITY":0.0006621,"INCLINATION":97.4415,"RA_OF_ASC_NODE":213.7806,"ARG_OF_PERICENTER":209.3049,"MEAN_ANOMALY":150.7823,"EPHEMERIS_TYPE":0,"CLASSIFICATION_TYPE":"U","NORAD_CAT_ID":58662,"ELEMENT_SET_NO":999,"REV_AT_EPOCH":12631,"BSTAR":0.00049839,"MEAN_MOTION_DOT":0.00016197,"MEAN_MOTION_DDOT":0},{"OBJECT_NAME":"TIANMU-1 22","OBJECT_ID":"2023-208D","EPOCH":"2026-04-04T20:20:47.927616","MEAN_MOTION":15.29995616,"ECCENTRICITY":0.0002822,"INCLINATION":97.4412,"RA_OF_ASC_NODE":210.8696,"ARG_OF_PERICENTER":222.0076,"MEAN_ANOMALY":138.0948,"EPHEMERIS_TYPE":0,"CLASSIFICATION_TYPE":"U","NORAD_CAT_ID":58663,"ELEMENT_SET_NO":999,"REV_AT_EPOCH":12611,"BSTAR":0.00039267,"MEAN_MOTION_DOT":0.00011331,"MEAN_MOTION_DDOT":0},{"OBJECT_NAME":"TIANMU-1 15","OBJECT_ID":"2024-004A","EPOCH":"2026-04-04T19:38:09.072384","MEAN_MOTION":15.26237478,"ECCENTRICITY":0.0005799,"INCLINATION":97.4675,"RA_OF_ASC_NODE":281.0297,"ARG_OF_PERICENTER":240.8168,"MEAN_ANOMALY":119.2491,"EPHEMERIS_TYPE":0,"CLASSIFICATION_TYPE":"U","NORAD_CAT_ID":58700,"ELEMENT_SET_NO":999,"REV_AT_EPOCH":12458,"BSTAR":0.00035392,"MEAN_MOTION_DOT":9.098e-5,"MEAN_MOTION_DDOT":0},{"OBJECT_NAME":"TIANMU-1 16","OBJECT_ID":"2024-004B","EPOCH":"2026-04-04T20:47:54.056832","MEAN_MOTION":15.26275169,"ECCENTRICITY":0.0004218,"INCLINATION":97.4619,"RA_OF_ASC_NODE":280.3828,"ARG_OF_PERICENTER":242.3135,"MEAN_ANOMALY":117.7675,"EPHEMERIS_TYPE":0,"CLASSIFICATION_TYPE":"U","NORAD_CAT_ID":58701,"ELEMENT_SET_NO":999,"REV_AT_EPOCH":12459,"BSTAR":0.00034203,"MEAN_MOTION_DOT":8.798e-5,"MEAN_MOTION_DDOT":0},{"OBJECT_NAME":"TIANMU-1 17","OBJECT_ID":"2024-004C","EPOCH":"2026-04-04T20:21:51.918048","MEAN_MOTION":15.26128517,"ECCENTRICITY":0.0004036,"INCLINATION":97.4649,"RA_OF_ASC_NODE":280.8298,"ARG_OF_PERICENTER":248.7673,"MEAN_ANOMALY":111.3135,"EPHEMERIS_TYPE":0,"CLASSIFICATION_TYPE":"U","NORAD_CAT_ID":58702,"ELEMENT_SET_NO":999,"REV_AT_EPOCH":12458,"BSTAR":0.00039862,"MEAN_MOTION_DOT":0.00010222,"MEAN_MOTION_DDOT":0},{"OBJECT_NAME":"TIANMU-1 18","OBJECT_ID":"2024-004D","EPOCH":"2026-04-04T20:01:40.271232","MEAN_MOTION":15.26245863,"ECCENTRICITY":0.0002821,"INCLINATION":97.4667,"RA_OF_ASC_NODE":281.0318,"ARG_OF_PERICENTER":238.249,"MEAN_ANOMALY":121.8474,"EPHEMERIS_TYPE":0,"CLASSIFICATION_TYPE":"U","NORAD_CAT_ID":58703,"ELEMENT_SET_NO":999,"REV_AT_EPOCH":12458,"BSTAR":0.00035587,"MEAN_MOTION_DOT":9.148e-5,"MEAN_MOTION_DDOT":0},{"OBJECT_NAME":"INSAT-3DS","OBJECT_ID":"2024-033A","EPOCH":"2026-04-04T20:01:22.071936","MEAN_MOTION":1.0027168,"ECCENTRICITY":0.0002184,"INCLINATION":0.041,"RA_OF_ASC_NODE":95.015,"ARG_OF_PERICENTER":286.2044,"MEAN_ANOMALY":194.3409,"EPHEMERIS_TYPE":0,"CLASSIFICATION_TYPE":"U","NORAD_CAT_ID":58990,"ELEMENT_SET_NO":999,"REV_AT_EPOCH":4633,"BSTAR":0,"MEAN_MOTION_DOT":-1.55e-6,"MEAN_MOTION_DDOT":0},{"OBJECT_NAME":"METEOR-M2 4","OBJECT_ID":"2024-039A","EPOCH":"2026-04-04T21:17:06.368928","MEAN_MOTION":14.22421467,"ECCENTRICITY":0.0007649,"INCLINATION":98.6948,"RA_OF_ASC_NODE":55.1334,"ARG_OF_PERICENTER":30.013,"MEAN_ANOMALY":330.1485,"EPHEMERIS_TYPE":0,"CLASSIFICATION_TYPE":"U","NORAD_CAT_ID":59051,"ELEMENT_SET_NO":999,"REV_AT_EPOCH":10884,"BSTAR":4.0776e-5,"MEAN_MOTION_DOT":4.7e-7,"MEAN_MOTION_DDOT":0}]
