TIANMU-1 10             
1 57402U 23101D   26094.87388781  .00009451  00000+0  33305-3 0  9991
2 57402  97.2693 147.4429 0006145  65.2381 294.9499 15.29478183150435
FENGYUN 3F              
1 57490U 23111A   26094.83090686  .00000144  00000+0  88384-4 0  9997
2 57490  98.6877 166.1927 0000808  87.5405 272.5864 14.19926136138456
ARKTIKA-M 2             
1 58584U 23198A   26089.99739019  .00000142  00000+0  00000+0 0  9990
2 58584  63.2169 163.0455 6882975 267.6817  18.8399  2.00607099 16755
TIANMU-1 11             
1 58645U 23205A   26094.83758686  .00008476  00000+0  32967-3 0  9996
2 58645  97.3509 117.5662 0007097 260.5988  99.4448 15.26251570126339
TIANMU-1 12             
1 58646U 23205B   26094.80562128  .00009560  00000+0  37220-3 0  9990
2 58646  97.3497 117.3066 0005634 237.8041 122.2651 15.26189479126311
TIANMU-1 13             
1 58647U 23205C   26094.83564683  .00008935  00000+0  34747-3 0  9998
2 58647  97.3525 117.5868 0006417 215.4486 144.6327 15.26240775126316
TIANMU-1 14             
1 58648U 23205D   26094.82064948  .00009167  00000+0  35668-3 0  9998
2 58648  97.3460 116.8171 0006986 221.9816 138.0888 15.26214150126311
TIANMU-1 19             
1 58660U 23208A   26094.88864422  .00012164  00000+0  41570-3 0  9996
2 58660  97.4417 210.9175 0004661 200.3024 159.8032 15.30424117126119
TIANMU-1 20             
1 58661U 23208B   26094.85268020  .00012400  00000+0  40836-3 0  9993
2 58661  97.4358 211.4412 0006520 214.9800 145.1014 15.31609652126199
TIANMU-1 21             
1 58662U 23208C   26094.81613588  .00016197  00000+0  49839-3 0  9992
2 58662  97.4415 213.7806 0006621 209.3049 150.7823 15.33719838126315
TIANMU-1 22             
1 58663U 23208D   26094.84777694  .00011331  00000+0  39267-3 0  9994
2 58663  97.4412 210.8696 0002822 222.0076 138.0948 15.29995616126119
TIANMU-1 15             
1 58700U 24004A   26094.81816056  .00009098  00000+0  35392-3 0  9996
2 58700  97.4675 281.0297 0005799 240.8168 119.2491 15.26237478124580
TIANMU-1 16             
1 58701U 24004B   26094.86659788  .00008798  00000+0  34203-3 0  9995
2 58701  97.4619 280.3828 0004218 242.3135 117.7675 15.26275169124594
TIANMU-1 17             
1 58702U 24004C   26094.84851757  .00010222  00000+0  39862-3 0  9995
2 58702  97.4649 280.8298 0004036 248.7673 111.3135 15.26128517124583
TIANMU-1 18             
1 58703U 24004D   26094.83449388  .00009148  00000+0  35587-3 0  9993
2 58703  97.4667 281.0318 0002821 238.2490 121.8474 15.26245863124587
INSAT-3DS               
1 58990U 24033A   26094.83428324 -.00000155  00000+0  00000+0 0  9998
2 58990   0.0410  95.0150 0002184 286.2044 194.3409  1.00271680 46330
METEOR-M2 4             
1 59051U 24039A   26094.88687927  .00000047  00000+0  40776-4 0  9992
2 59051  98.6948  55.1334 0007649  30.0130 330.1485 14.22421467108848
